{"type": "FeatureCollection", "features": [ {"type": "Feature", "properties": {"norad_id": 37216, "name": "COSMO-SKYMED 4", "group": "resource", "lat": -37.82025844307507, "lon": -170.8401889529355, "alt_km": 629.450709791412, "timestamp": "2025-12-27T21:25:02.157217+00:00", "meta": {"OBJECT_NAME": "COSMO-SKYMED 4", "OBJECT_ID": "2010-060A", "EPOCH": "2025-12-27T11:52:04.763712", "MEAN_MOTION": 14.82156126, "ECCENTRICITY": 0.0001429, "INCLINATION": 97.881, "RA_OF_ASC_NODE": 182.5955, "ARG_OF_PERICENTER": 82.6601, "MEAN_ANOMALY": 277.4774, "EPHEMERIS_TYPE": 0, "CLASSIFICATION_TYPE": "U", "NORAD_CAT_ID": 37216, "ELEMENT_SET_NO": 999, "REV_AT_EPOCH": 81913, "BSTAR": 8.9456e-05, "MEAN_MOTION_DOT": 6.6e-06, "MEAN_MOTION_DDOT": 0}, "tle": {"line1": "1 37216U 10060A   25361.49449958  .00000660  00000+0  89456-4 0  9992", "line2": "2 37216  97.8810 182.5955 0001429  82.6601 277.4774 14.82156126819134"}}, "geometry": {"type": "Point", "coordinates": [-170.8401889529355, -37.82025844307507]}}, {"type": "Feature", "properties": {"norad_id": 37387, "name": "RESOURCESAT-2", "group": "resource", "lat": -48.50677180585184, "lon": -124.69494617779611, "alt_km": 829.4978878654692, "timestamp": "2025-12-27T21:25:02.157228+00:00", "meta": {"OBJECT_NAME": "RESOURCESAT-2", "OBJECT_ID": "2011-015A", "EPOCH": "2025-12-27T11:53:46.213728", "MEAN_MOTION": 14.21595569, "ECCENTRICITY": 0.0005704, "INCLINATION": 98.7858, "RA_OF_ASC_NODE": 64.9799, "ARG_OF_PERICENTER": 2.0375, "MEAN_ANOMALY": 358.0824, "EPHEMERIS_TYPE": 0, "CLASSIFICATION_TYPE": "U", "NORAD_CAT_ID": 37387, "ELEMENT_SET_NO": 999, "REV_AT_EPOCH": 76178, "BSTAR": 8.0459e-05, "MEAN_MOTION_DOT": 1.32e-06, "MEAN_MOTION_DDOT": 0}, "tle": {"line1": "1 37387U 11015A   25361.49567377  .00000132  00000+0  80459-4 0  9996", "line2": "2 37387  98.7858  64.9799 0005704   2.0375 358.0824 14.21595569761788"}}, "geometry": {"type": "Point", "coordinates": [-124.69494617779611, -48.50677180585184]}}, {"type": "Feature", "properties": {"norad_id": 37781, "name": "HAIYANG-2A", "group": "resource", "lat": 69.69332552785446, "lon": -151.0045857476518, "alt_km": 960.4022273731371, "timestamp": "2025-12-27T21:25:02.157239+00:00", "meta": {"OBJECT_NAME": "HAIYANG-2A", "OBJECT_ID": "2011-043A", "EPOCH": "2025-12-27T12:11:15.033696", "MEAN_MOTION": 13.78836139, "ECCENTRICITY": 0.0001568, "INCLINATION": 99.3384, "RA_OF_ASC_NODE": 2.2149, "ARG_OF_PERICENTER": 63.363, "MEAN_ANOMALY": 296.7682, "EPHEMERIS_TYPE": 0, "CLASSIFICATION_TYPE": "U", "NORAD_CAT_ID": 37781, "ELEMENT_SET_NO": 999, "REV_AT_EPOCH": 72302, "BSTAR": 3.4013e-06, "MEAN_MOTION_DOT": -4.1e-07, "MEAN_MOTION_DDOT": 0}, "tle": {"line1": "1 37781U 11043A   25361.50781289 -.00000041  00000+0  34013-5 0  9993", "line2": "2 37781  99.3384   2.2149 0001568  63.3630 296.7682 13.78836139723026"}}, "geometry": {"type": "Point", "coordinates": [-151.0045857476518, 69.69332552785446]}}, {"type": "Feature", "properties": {"norad_id": 37791, "name": "RASAT", "group": "resource", "lat": 35.75855150862796, "lon": 85.06496489526809, "alt_km": 650.9907933750028, "timestamp": "2025-12-27T21:25:02.157250+00:00", "meta": {"OBJECT_NAME": "RASAT", "OBJECT_ID": "2011-044D", "EPOCH": "2025-12-27T13:20:03.374304", "MEAN_MOTION": 14.67930277, "ECCENTRICITY": 0.0021177, "INCLINATION": 98.0636, "RA_OF_ASC_NODE": 90.5928, "ARG_OF_PERICENTER": 20.0542, "MEAN_ANOMALY": 37.4135, "EPHEMERIS_TYPE": 0, "CLASSIFICATION_TYPE": "U", "NORAD_CAT_ID": 37791, "ELEMENT_SET_NO": 999, "REV_AT_EPOCH": 76800, "BSTAR": 0.00014779, "MEAN_MOTION_DOT": 7.99e-06, "MEAN_MOTION_DDOT": 0}, "tle": {"line1": "1 37791U 11044D   25361.55559461  .00000799  00000+0  14779-3 0  9999", "line2": "2 37791  98.0636  90.5928 0021177  20.0542  37.4135 14.67930277768005"}}, "geometry": {"type": "Point", "coordinates": [85.06496489526809, 35.75855150862796]}}, {"type": "Feature", "properties": {"norad_id": 37841, "name": "SRMSAT", "group": "resource", "lat": -6.279118760939901, "lon": -146.11625796540116, "alt_km": 851.0732280878583, "timestamp": "2025-12-27T21:25:02.157261+00:00", "meta": {"OBJECT_NAME": "SRMSAT", "OBJECT_ID": "2011-058D", "EPOCH": "2025-12-27T08:44:04.528320", "MEAN_MOTION": 14.11516495, "ECCENTRICITY": 0.0011975, "INCLINATION": 19.9733, "RA_OF_ASC_NODE": 19.4452, "ARG_OF_PERICENTER": 113.2094, "MEAN_ANOMALY": 274.2222, "EPHEMERIS_TYPE": 0, "CLASSIFICATION_TYPE": "U", "NORAD_CAT_ID": 37841, "ELEMENT_SET_NO": 999, "REV_AT_EPOCH": 73351, "BSTAR": 0.00010535, "MEAN_MOTION_DOT": 4.59e-06, "MEAN_MOTION_DDOT": 0}, "tle": {"line1": "1 37841U 11058D   25361.36394130  .00000459  00000+0  10535-3 0  9998", "line2": "2 37841  19.9733  19.4452 0011975 113.2094 274.2222 14.11516495733512"}}, "geometry": {"type": "Point", "coordinates": [-146.11625796540116, -6.279118760939901]}}, {"type": "Feature", "properties": {"norad_id": 38012, "name": "PLEIADES 1A", "group": "resource", "lat": 41.44910721845783, "lon": 67.1274406672725, "alt_km": 693.8238053009718, "timestamp": "2025-12-27T21:25:02.157272+00:00", "meta": {"OBJECT_NAME": "PLEIADES 1A", "OBJECT_ID": "2011-076F", "EPOCH": "2025-12-27T11:55:14.613024", "MEAN_MOTION": 14.58576101, "ECCENTRICITY": 0.0001046, "INCLINATION": 98.1801, "RA_OF_ASC_NODE": 74.0362, "ARG_OF_PERICENTER": 76.4624, "MEAN_ANOMALY": 49.1164, "EPHEMERIS_TYPE": 0, "CLASSIFICATION_TYPE": "U", "NORAD_CAT_ID": 38012, "ELEMENT_SET_NO": 999, "REV_AT_EPOCH": 74696, "BSTAR": 0.00017669, "MEAN_MOTION_DOT": 7.76e-06, "MEAN_MOTION_DDOT": 0}, "tle": {"line1": "1 38012U 11076F   25361.49669691  .00000776  00000+0  17669-3 0  9997", "line2": "2 38012  98.1801  74.0362 0001046  76.4624  49.1164 14.58576101746960"}}, "geometry": {"type": "Point", "coordinates": [67.1274406672725, 41.44910721845783]}}, {"type": "Feature", "properties": {"norad_id": 38038, "name": "ZIYUAN 1-02C (ZY 1-02C)", "group": "resource", "lat": -81.52219949461875, "lon": 151.91113990258904, "alt_km": 777.7185993943413, "timestamp": "2025-12-27T21:25:02.157284+00:00", "meta": {"OBJECT_NAME": "ZIYUAN 1-02C (ZY 1-02C)", "OBJECT_ID": "2011-079A", "EPOCH": "2025-12-27T12:23:31.628256", "MEAN_MOTION": 14.38029738, "ECCENTRICITY": 0.0007582, "INCLINATION": 98.4309, "RA_OF_ASC_NODE": 67.2562, "ARG_OF_PERICENTER": 99.8973, "MEAN_ANOMALY": 25.2933, "EPHEMERIS_TYPE": 0, "CLASSIFICATION_TYPE": "U", "NORAD_CAT_ID": 38038, "ELEMENT_SET_NO": 999, "REV_AT_EPOCH": 73453, "BSTAR": 0.00029664, "MEAN_MOTION_DOT": 8.55e-06, "MEAN_MOTION_DDOT": 0}, "tle": {"line1": "1 38038U 11079A   25361.51633829  .00000855  00000+0  29664-3 0  9991", "line2": "2 38038  98.4309  67.2562 0007582  99.8973  25.2933 14.38029738734533"}}, "geometry": {"type": "Point", "coordinates": [151.91113990258904, -81.52219949461875]}}, {"type": "Feature", "properties": {"norad_id": 38338, "name": "ARIRANG-3 (KOMPSAT-3)", "group": "resource", "lat": 66.98971701740429, "lon": 156.7904419299746, "alt_km": 684.2879225397128, "timestamp": "2025-12-27T21:25:02.157295+00:00", "meta": {"OBJECT_NAME": "ARIRANG-3 (KOMPSAT-3)", "OBJECT_ID": "2012-025B", "EPOCH": "2025-12-27T12:41:40.183584", "MEAN_MOTION": 14.61732352, "ECCENTRICITY": 0.0004632, "INCLINATION": 98.3343, "RA_OF_ASC_NODE": 316.2315, "ARG_OF_PERICENTER": 284.7561, "MEAN_ANOMALY": 75.3126, "EPHEMERIS_TYPE": 0, "CLASSIFICATION_TYPE": "U", "NORAD_CAT_ID": 38338, "ELEMENT_SET_NO": 999, "REV_AT_EPOCH": 72626, "BSTAR": 0.00015082, "MEAN_MOTION_DOT": 7.03e-06, "MEAN_MOTION_DDOT": 0}, "tle": {"line1": "1 38338U 12025B   25361.52893731  .00000703  00000+0  15082-3 0  9998", "line2": "2 38338  98.3343 316.2315 0004632 284.7561  75.3126 14.61732352726267"}}, "geometry": {"type": "Point", "coordinates": [156.7904419299746, 66.98971701740429]}}, {"type": "Feature", "properties": {"norad_id": 38709, "name": "EXACTVIEW-1 (ADS-1B)", "group": "resource", "lat": -79.59268553337378, "lon": -128.64799281061403, "alt_km": 810.8774168532555, "timestamp": "2025-12-27T21:25:02.157306+00:00", "meta": {"OBJECT_NAME": "EXACTVIEW-1 (ADS-1B)", "OBJECT_ID": "2012-039C", "EPOCH": "2025-12-27T06:41:45.184416", "MEAN_MOTION": 14.24913949, "ECCENTRICITY": 0.0010047, "INCLINATION": 98.964, "RA_OF_ASC_NODE": 109.9743, "ARG_OF_PERICENTER": 310.2244, "MEAN_ANOMALY": 49.8055, "EPHEMERIS_TYPE": 0, "CLASSIFICATION_TYPE": "U", "NORAD_CAT_ID": 38709, "ELEMENT_SET_NO": 999, "REV_AT_EPOCH": 69822, "BSTAR": 9.8874e-05, "MEAN_MOTION_DOT": 1.85e-06, "MEAN_MOTION_DDOT": 0}, "tle": {"line1": "1 38709U 12039C   25361.27899519  .00000185  00000+0  98874-4 0  9992", "line2": "2 38709  98.9640 109.9743 0010047 310.2244  49.8055 14.24913949698220"}}, "geometry": {"type": "Point", "coordinates": [-128.64799281061403, -79.59268553337378]}}, {"type": "Feature", "properties": {"norad_id": 38755, "name": "SPOT 6", "group": "resource", "lat": -34.65063146314157, "lon": 72.08348754212697, "alt_km": 704.4230711420814, "timestamp": "2025-12-27T21:25:02.157317+00:00", "meta": {"OBJECT_NAME": "SPOT 6", "OBJECT_ID": "2012-047A", "EPOCH": "2025-12-27T11:41:56.283072", "MEAN_MOTION": 14.58545912, "ECCENTRICITY": 0.0001233, "INCLINATION": 98.1549, "RA_OF_ASC_NODE": 65.9984, "ARG_OF_PERICENTER": 77.5925, "MEAN_ANOMALY": 282.5412, "EPHEMERIS_TYPE": 0, "CLASSIFICATION_TYPE": "U", "NORAD_CAT_ID": 38755, "ELEMENT_SET_NO": 999, "REV_AT_EPOCH": 70802, "BSTAR": 0.00013747, "MEAN_MOTION_DOT": 5.94e-06, "MEAN_MOTION_DDOT": 0}, "tle": {"line1": "1 38755U 12047A   25361.48745698  .00000594  00000+0  13747-3 0  9992", "line2": "2 38755  98.1549  65.9984 0001233  77.5925 282.5412 14.58545912708026"}}, "geometry": {"type": "Point", "coordinates": [72.08348754212697, -34.65063146314157]}}]}